H1 CPF 01  gfz 2021 08 03 00  7151 tandemx   
H2 1003001  6202 36605    2021 08 03 00 59 42 2021 08 08 00 00 42   120 1 1  0 0 0
H9
10 0 59430  66222.000000  0   -6632467.176    408677.686   1809075.307
10 0 59430  66342.000000  0   -6799582.887    601296.526    922870.225
10 0 59430  66462.000000  0   -6844528.626    785259.862     20413.971
10 0 59430  66582.000000  0   -6766765.935    955214.543   -882403.898
10 0 59430  66702.000000  0   -6568013.800   1106068.029  -1769703.562
10 0 59430  66822.000000  0   -6252206.975   1233116.909  -2625901.027
10 0 59430  66942.000000  0   -5825411.986   1332167.931  -3435989.201
10 0 59430  67062.000000  0   -5295697.886   1399646.141  -4185805.335
10 0 59430  67182.000000  0   -4672970.560   1432688.451  -4862277.174
10 0 59430  67302.000000  0   -3968775.050   1429220.951  -5453645.777
10 0 59430  67422.000000  0   -3196071.401   1388018.280  -5949660.925
10 0 59430  67542.000000  0   -2368989.659   1308743.725  -6341748.394
10 0 59430  67662.000000  0   -1502568.012   1191970.311  -6623147.055
10 0 59430  67782.000000  0    -612479.075   1039182.765  -6789013.468
10 0 59430  67902.000000  0     285248.808    852759.699  -6836495.074
10 0 59430  68022.000000  0    1174512.001    635937.599  -6764774.541
10 0 59430  68142.000000  0    2039414.473    392755.686  -6575084.502
10 0 59430  68262.000000  0    2864545.921    127982.840  -6270687.998
10 0 59430  68382.000000  0    3635252.034   -152971.843  -5856828.547
10 0 59430  68502.000000  0    4337892.062   -444164.942  -5340647.919
10 0 59430  68622.000000  0    4960081.160   -739238.305  -4731075.097
10 0 59430  68742.000000  0    5490915.326  -1031551.605  -4038683.487
10 0 59430  68862.000000  0    5921171.239  -1314324.719  -3275517.109
10 0 59430  68982.000000  0    6243477.597  -1580787.551  -2454888.587
10 0 59430  69102.000000  0    6452453.772  -1824334.138  -1591151.080
10 0 59430  69222.000000  0    6544811.245  -2038677.024   -699447.338
10 0 59430  69342.000000  0    6519414.861  -2217997.853    204558.819
10 0 59430  69462.000000  0    6377301.857  -2357090.978   1104964.061
10 0 59430  69582.000000  0    6121656.800  -2451495.197   1985914.066
10 0 59430  69702.000000  0    5757742.550  -2497611.226   2831891.897
10 0 59430  69822.000000  0    5292789.699  -2492800.880   3627999.955
10 0 59430  69942.000000  0    4735845.828  -2435465.363   4360228.190
10 0 59430  70062.000000  0    4097592.467  -2325101.195   5015702.727
10 0 59430  70182.000000  0    3390132.865  -2162333.733   5582914.127
10 0 59430  70302.000000  0    2626752.673  -1948926.092   6051917.425
10 0 59430  70422.000000  0    1821663.690  -1687763.635   6414501.099
10 0 59430  70542.000000  0     989734.539  -1382815.758   6664325.070
10 0 59430  70662.000000  0     146212.921  -1039074.836   6797025.787
10 0 59430  70782.000000  0    -693554.660   -662473.268   6810286.955
10 0 59430  70902.000000  0   -1514400.972   -259780.900   6703876.669
10 0 59430  71022.000000  0   -2301610.713    161516.356   6479651.203
10 0 59430  71142.000000  0   -3041183.469    593355.001   6141525.151
10 0 59430  71262.000000  0   -3720083.716   1027247.059   5695408.028
10 0 59430  71382.000000  0   -4326474.444   1454445.398   5149107.471
10 0 59430  71502.000000  0   -4849929.759   1866118.863   4512198.501
10 0 59430  71622.000000  0   -5281621.693   2253534.404   3795860.251
10 0 59430  71742.000000  0   -5614476.835   2608241.439   3012682.327
10 0 59430  71862.000000  0   -5843299.769   2922254.750   2176444.507
10 0 59430  71982.000000  0   -5964861.280   3188231.956   1301872.483
10 0 59430  72102.000000  0   -5977947.670   3399641.337    404372.345
10 0 59430  72222.000000  0   -5883367.756   3550914.165   -500248.856
10 0 59430  72342.000000  0   -5683919.725   3637578.281  -1396069.961
10 0 59430  72462.000000  0   -5384318.644   3656370.363  -2267345.284
10 0 59430  72582.000000  0   -4991083.444   3605322.297  -3098789.911
10 0 59430  72702.000000  0   -4512389.413   3483820.588  -3875852.503
10 0 59430  72822.000000  0   -3957889.785   3292637.304  -4584970.360
10 0 59430  72942.000000  0   -3338513.104   3033933.163  -5213802.474
10 0 59430  73062.000000  0   -2666241.030   2711232.888  -5751436.138
10 0 59430  73182.000000  0   -1953873.087   2329375.038  -6188567.135
10 0 59430  73302.000000  0   -1214779.865   1894435.807  -6517650.090
10 0 59430  73422.000000  0    -462653.093   1413629.820  -6733016.220
10 0 59430  73542.000000  0     288744.008    895190.000  -6830960.852
10 0 59430  73662.000000  0    1025821.844    348228.737  -6809800.392
10 0 59430  73782.000000  0    1735405.409   -217419.043  -6669899.566
10 0 59430  73902.000000  0    2404964.302   -791368.668  -6413664.367
10 0 59430  74022.000000  0    3022829.451  -1362871.230  -6045505.703
10 0 59430  74142.000000  0    3578394.373  -1921009.547  -5571771.045
10 0 59430  74262.000000  0    4062298.553  -2454902.708  -5000646.978
10 0 59430  74382.000000  0    4466589.843  -2953917.391  -4342028.479
10 0 59430  74502.000000  0    4784860.346  -3407879.534  -3607357.578
10 0 59430  74622.000000  0    5012355.518  -3807282.502  -2809433.994
10 0 59430  74742.000000  0    5146053.631  -4143488.442  -1962197.926
10 0 59430  74862.000000  0    5184711.572  -4408916.661  -1080488.338
10 0 59430  74982.000000  0    5128876.123  -4597215.332   -179781.248
10 0 59430  75102.000000  0    4980858.523  -4703411.600    724087.364
10 0 59430  75222.000000  0    4744672.942  -4724034.557   1615208.292
10 0 59430  75342.000000  0    4425939.880  -4657207.838   2477888.235
10 0 59430  75462.000000  0    4031757.914  -4502709.998   3296934.257
10 0 59430  75582.000000  0    3570546.791  -4262001.463   4057928.443
10 0 59430  75702.000000  0    3051864.978  -3938216.981   4747486.631
10 0 59430  75822.000000  0    2486207.715  -3536123.348   5353495.317
10 0 59430  75942.000000  0    1884790.932  -3062045.528   5865323.335
10 0 59430  76062.000000  0    1259324.558  -2523761.332   6274004.950
10 0 59430  76182.000000  0     621781.809  -1930368.834   6572390.627
10 0 59430  76302.000000  0     -15831.578  -1292129.219   6755265.839
10 0 59430  76422.000000  0    -641703.063   -620287.125   6819436.906
10 0 59430  76542.000000  0   -1244431.068     73128.638   6763782.990
10 0 59430  76662.000000  0   -1813231.949    775520.104   6589274.400
10 0 59430  76782.000000  0   -2338132.439   1473948.331   6298956.693
10 0 59430  76902.000000  0   -2810145.073   2155370.818   5897900.868
10 0 59430  77022.000000  0   -3221423.672   2806885.123   5393120.671
10 0 59430  77142.000000  0   -3565397.294   3415975.067   4793456.367
10 0 59430  77262.000000  0   -3836879.630   3970754.225   4109425.599
10 0 59430  77382.000000  0   -4032151.098   4460202.965   3353043.310
10 0 59430  77502.000000  0   -4149011.847   4874393.514   2537612.301
10 0 59430  77622.000000  0   -4186803.508   5204696.608   1677487.040
10 0 59430  77742.000000  0   -4146399.362   5443964.766    787817.012
10 0 59430  77862.000000  0   -4030164.243   5586688.387   -115725.941
10 0 59430  77982.000000  0   -3841883.726   5629120.950  -1017232.790
10 0 59430  78102.000000  0   -3586663.013   5569367.404  -1900848.204
10 0 59430  78222.000000  0   -3270798.947   5407433.735  -2751058.091
10 0 59430  78342.000000  0   -2901628.969   5145239.035  -3552967.467
10 0 59430  78462.000000  0   -2487362.787   4786587.808  -4292563.701
10 0 59430  78582.000000  0   -2036900.027   4337105.726  -4956959.121
10 0 59430  78702.000000  0   -1559639.385   3804142.175  -5534608.450
10 0 59430  78822.000000  0   -1065283.868   3196642.431  -6015501.504
10 0 59430  78942.000000  0    -563644.865   2524989.935  -6391327.211
10 0 59430  79062.000000  0     -64449.746   1800823.787  -6655605.209
10 0 59430  79182.000000  0     422842.247   1036836.313  -6803786.646
10 0 59430  79302.000000  0     889214.600    246552.941  -6833324.751
10 0 59430  79422.000000  0    1326256.734   -555903.025  -6743713.900
10 0 59430  79542.000000  0    1726311.522  -1356057.369  -6536495.774
10 0 59430  79662.000000  0    2082606.140  -2139338.769  -6215235.506
10 0 59430  79782.000000  0    2389365.645  -2891337.530  -5785467.610
10 0 59430  79902.000000  0    2641907.114  -3598067.732  -5254612.283
10 0 59430  80022.000000  0    2836713.316  -4246228.861  -4631857.467
10 0 59430  80142.000000  0    2971482.352  -4823457.290  -3928009.087
10 0 59430  80262.000000  0    3045153.959  -5318566.526  -3155314.808
10 0 59430  80382.000000  0    3057911.640  -5721773.232  -2327258.939
10 0 59430  80502.000000  0    3011159.614  -6024899.743  -1458330.451
10 0 59430  80622.000000  0    2907474.936  -6221549.311   -563769.201
10 0 59430  80742.000000  0    2750534.026  -6307248.541    340706.467
10 0 59430  80862.000000  0    2545015.907  -6279551.142   1239182.538
10 0 59430  80982.000000  0    2296485.246  -6138103.418   2115837.957
10 0 59430  81102.000000  0    2011256.641  -5884665.503   2955233.577
10 0 59430  81222.000000  0    1696244.666  -5523089.058   3742591.213
10 0 59430  81342.000000  0    1358803.279  -5059254.368   4464058.653
10 0 59430  81462.000000  0    1006559.665  -4500967.791   5106955.772
10 0 59430  81582.000000  0     647245.641  -3857822.621   5659998.689
10 0 59430  81702.000000  0     288530.108  -3141023.644   6113495.511
10 0 59430  81822.000000  0     -62142.068  -2363183.173   6459509.627
10 0 59430  81942.000000  0    -397702.031  -1538094.236   6691991.615
10 0 59430  82062.000000  0    -711597.188   -680483.857   6806879.691
10 0 59430  82182.000000  0    -997917.712    194251.357   6802167.335
10 0 59430  82302.000000  0   -1251507.149   1070322.039   6677936.089
10 0 59430  82422.000000  0   -1468054.860   1931830.488   6436353.869
10 0 59430  82542.000000  0   -1644169.484   2763058.516   6081639.684
10 0 59430  82662.000000  0   -1777432.460   3548754.882   5619994.237
99
